{
    "links": {
        "self": "http://www.neowsapp.com/rest/v1/neo/3545707?api_key=iIulBulltgU6a56xZRHN4H3l9WmuAYTsLGpBGhQ2"
    },
    "id": "3545707",
    "neo_reference_id": "3545707",
    "name": "(2010 RH42)",
    "designation": "2010 RH42",
    "nasa_jpl_url": "http://ssd.jpl.nasa.gov/sbdb.cgi?sstr=3545707",
    "absolute_magnitude_h": 23.8,
    "estimated_diameter": {
        "kilometers": {
            "estimated_diameter_min": 0.046190746,
            "estimated_diameter_max": 0.1032856481
        },
        "meters": {
            "estimated_diameter_min": 46.1907460282,
            "estimated_diameter_max": 103.2856480504
        },
        "miles": {
            "estimated_diameter_min": 0.0287015901,
            "estimated_diameter_max": 0.0641787064
        },
        "feet": {
            "estimated_diameter_min": 151.544447199,
            "estimated_diameter_max": 338.8636855496
        }
    },
    "is_potentially_hazardous_asteroid": false,
    "close_approach_data": [
        {
            "close_approach_date": "2010-08-31",
            "close_approach_date_full": "2010-Aug-31 03:51",
            "epoch_date_close_approach": 1283226660000,
            "relative_velocity": {
                "kilometers_per_second": "13.6200875723",
                "kilometers_per_hour": "49032.3152603599",
                "miles_per_hour": "30466.7738905275"
            },
            "miss_distance": {
                "astronomical": "0.1217317327",
                "lunar": "47.3536440203",
                "kilometers": "18210807.923329349",
                "miles": "11315671.3289050562"
            },
            "orbiting_body": "Earth"
        }
    ],
    "orbital_data": {
        "orbit_id": "6",
        "orbit_determination_date": "2017-04-06 08:56:48",
        "first_observation_date": "2010-09-05",
        "last_observation_date": "2010-09-07",
        "data_arc_in_days": 2,
        "observations_used": 17,
        "orbit_uncertainty": "9",
        "minimum_orbit_intersection": ".118266",
        "jupiter_tisserand_invariant": "2.791",
        "epoch_osculation": "2455445.5",
        "eccentricity": ".6424622330243767",
        "semi_major_axis": "3.10237208038413",
        "inclination": "19.75819063484515",
        "ascending_node_longitude": "161.4697429742954",
        "orbital_period": "1995.902177094237",
        "perihelion_distance": "1.109215185948061",
        "perihelion_argument": "160.1156962624681",
        "aphelion_distance": "5.0955289748202",
        "perihelion_time": "2455426.503178293801",
        "mean_anomaly": "3.426448396478071",
        "mean_motion": ".1803695612598164",
        "equinox": "J2000",
        "orbit_class": {
            "orbit_class_type": "AMO",
            "orbit_class_description": "Near-Earth asteroid orbits similar to that of 1221 Amor",
            "orbit_class_range": "1.017 AU < q (perihelion) < 1.3 AU"
        }
    },
    "is_sentry_object": false
}